SAR-LUPE 2              
1 31797U 07030A   26169.57318606  .00050100  00000+0  87697-3 0  9992
2 31797  98.1047 274.1768 0003996 154.6793 205.4653 15.50455973 57152
SAPPHIRE                
1 39088U 13009C   26169.55615808  .00000079  00000+0  42652-4 0  9991
2 39088  98.4261 348.9794 0010118 242.0906 117.9256 14.35240939696774
PRAETORIAN SDA_602      
1 65565U 25203A   26169.61410076  .00000047  00000+0  31467-4 0  9993
2 65565  81.3030   9.4467 0005857 180.0109 180.1049 13.84342950 38898
PRAETORIAN SDA_603      
1 65566U 25203B   26169.20744728  .00000241  00000+0  20665-3 0  9996
2 65566  81.3033   9.7408 0009378 184.7009 175.4061 13.83905762 38843
PRAETORIAN SDA_604      
1 65567U 25203C   26169.51716975  .00000050  00000+0  34621-4 0  9990
2 65567  81.3052   9.8684 0005337 187.5686 172.5390 13.83047623 38863
PRAETORIAN SDA_605      
1 65568U 25203D   26169.55445515  .00000035  00000+0  20851-4 0  9997
2 65568  81.3017   9.4957 0008156 179.2352 180.8818 13.83434274 38885
PRAETORIAN SDA_606      
1 65569U 25203E   26168.30750804  .00000053  00000+0  37439-4 0  9990
2 65569  81.3055  10.8712 0005744 180.4388 179.6764 13.83407378 38708
PRAETORIAN SDA_607      
1 65570U 25203F   26169.61648648  .00000164  00000+0  13651-3 0  9991
2 65570  81.3033   9.3222 0008851 183.7503 176.3589 13.84284734 38903
PRAETORIAN SDA_608      
1 65571U 25203G   26169.30515363  .00000053  00000+0  37325-4 0  9997
2 65571  81.3006   9.7723 0005822 187.5638 172.5432 13.83816974 38844
PRAETORIAN SDA_609      
1 65572U 25203H   26169.30974336  .00000143  00000+0  11777-3 0  9999
2 65572  81.3050   9.7503 0006833 181.3784 178.7355 13.84208146 38857
PRAETORIAN SDA_610      
1 65573U 25203J   26169.06797639  .00000038  00000+0  23778-4 0  9990
2 65573  81.3007   9.9498 0006473 186.0221 174.0859 13.83851939 38810
PRAETORIAN SDA_611      
1 65574U 25203K   26169.50308176  .00000280  00000+0  24398-3 0  9991
2 65574  81.3007   9.7130 0005375 190.5984 169.5060 13.83309012 38866
PRAETORIAN SDA_612      
1 65575U 25203L   26169.05761789  .00000132  00000+0  10611-3 0  9994
2 65575  81.3033   9.7100 0009027 183.4700 176.6396 13.85037197 38830
PRAETORIAN SDA_613      
1 65576U 25203M   26169.51034505  .00000043  00000+0  28710-4 0  9996
2 65576  81.2998   9.7050 0005634 180.0484 180.0673 13.82765156 38866
PRAETORIAN SDA_614      
1 65577U 25203N   26168.97470263  .00000016  00000+0  33012-5 0  9993
2 65577  81.3014   9.8650 0007037 181.5884 178.5252 13.84777941 38821
PRAETORIAN SDA_615      
1 65578U 25203P   26169.60222362  .00000177  00000+0  14740-3 0  9993
2 65578  81.3021   9.2476 0009038 181.2942 178.8193 13.84436471 38901
PRAETORIAN SDA_616      
1 65579U 25203Q   26169.35767148  .00000160  00000+0  13541-3 0  9992
2 65579  81.3063   9.9933 0005276 188.0517 172.0556 13.83267388 38846
PRAETORIAN SDA_617      
1 65580U 25203R   26169.52405084  .00000030  00000+0  16859-4 0  9993
2 65580  81.3036   9.6715 0007339 180.3244 179.7908 13.83150137 38878
PRAETORIAN SDA_618      
1 65581U 25203S   26169.27900092  .00000166  00000+0  13735-3 0  9994
2 65581  81.3018   9.4764 0009674 184.9968 175.1094 13.84670108 38869
PRAETORIAN SDA_619      
1 65582U 25203T   26169.60484491  .00000157  00000+0  13148-3 0  9990
2 65582  81.3041   9.4734 0008216 181.5911 178.5221 13.83805897 39522
PRAETORIAN SDA_620      
1 65583U 25203U   26169.48839897  .00000112  00000+0  90868-4 0  9997
2 65583  81.3028   9.6028 0007713 177.3783 182.7415 13.83618401 38879
PRAETORIAN SDA_621      
1 65584U 25203V   26169.60662205  .00000050  00000+0  34647-4 0  9993
2 65584  81.3020   9.4106 0007430 174.7447 185.3789 13.83801426 38897
PRAETORIAN SDA_601      
1 65585U 25203W   26169.50556551  .00000413  00000+0  36625-3 0  9999
2 65585  81.3036   9.8017 0005323 191.5599 168.5435 13.83167657 38863
