OBJECT_NAME,OBJECT_ID,EPOCH,MEAN_MOTION,ECCENTRICITY,INCLINATION,RA_OF_ASC_NODE,ARG_OF_PERICENTER,MEAN_ANOMALY,EPHEMERIS_TYPE,CLASSIFICATION_TYPE,NORAD_CAT_ID,ELEMENT_SET_NO,REV_AT_EPOCH,BSTAR,MEAN_MOTION_DOT,MEAN_MOTION_DDOT
SAR-LUPE 2,2007-030A,2026-06-18T13:45:23.275584,15.50455973,.00039961,98.1047,274.1768,154.6793,205.4653,0,U,31797,999,5715,.8769731E-3,.501E-3,0
SAPPHIRE,2013-009C,2026-06-18T13:20:52.058112,14.35240939,.00101182,98.4261,348.9794,242.0906,117.9256,0,U,39088,999,69677,.42652132E-4,.79E-6,0
PRAETORIAN SDA_602,2025-203A,2026-06-18T14:44:18.305664,13.84342950,.00058571,81.3030,9.4467,180.0109,180.1049,0,U,65565,999,3889,.31467162E-4,.47E-6,0
PRAETORIAN SDA_603,2025-203B,2026-06-18T04:58:43.444992,13.83905762,.00093784,81.3033,9.7408,184.7009,175.4061,0,U,65566,999,3884,.20665075E-3,.241E-5,0
PRAETORIAN SDA_604,2025-203C,2026-06-18T12:24:43.466400,13.83047623,.00053372,81.3052,9.8684,187.5686,172.5390,0,U,65567,999,3886,.3462064E-4,.5E-6,0
PRAETORIAN SDA_605,2025-203D,2026-06-18T13:18:24.924960,13.83434274,.00081561,81.3017,9.4957,179.2352,180.8818,0,U,65568,999,3888,.20850532E-4,.35E-6,0
PRAETORIAN SDA_606,2025-203E,2026-06-17T07:22:48.694656,13.83407378,.00057443,81.3055,10.8712,180.4388,179.6764,0,U,65569,999,3870,.3743896E-4,.53E-6,0
PRAETORIAN SDA_607,2025-203F,2026-06-18T14:47:44.431872,13.84284734,.00088517,81.3033,9.3222,183.7503,176.3589,0,U,65570,999,3890,.13651069E-3,.164E-5,0
PRAETORIAN SDA_608,2025-203G,2026-06-18T07:19:25.273632,13.83816974,.00058221,81.3006,9.7723,187.5638,172.5432,0,U,65571,999,3884,.37325354E-4,.53E-6,0
PRAETORIAN SDA_609,2025-203H,2026-06-18T07:26:01.826304,13.84208146,.00068339,81.3050,9.7503,181.3784,178.7355,0,U,65572,999,3885,.11777425E-3,.143E-5,0
PRAETORIAN SDA_610,2025-203J,2026-06-18T01:37:53.160096,13.83851939,.00064736,81.3007,9.9498,186.0221,174.0859,0,U,65573,999,3881,.2377757E-4,.38E-6,0
PRAETORIAN SDA_611,2025-203K,2026-06-18T12:04:26.264064,13.83309012,.00053759,81.3007,9.7130,190.5984,169.5060,0,U,65574,999,3886,.24398454E-3,.28E-5,0
PRAETORIAN SDA_612,2025-203L,2026-06-18T01:22:58.185696,13.85037197,.00090273,81.3033,9.7100,183.4700,176.6396,0,U,65575,999,3883,.10611288E-3,.132E-5,0
PRAETORIAN SDA_613,2025-203M,2026-06-18T12:14:53.812320,13.82765156,.00056349,81.2998,9.7050,180.0484,180.0673,0,U,65576,999,3886,.28709975E-4,.43E-6,0
PRAETORIAN SDA_614,2025-203N,2026-06-17T23:23:34.307232,13.84777941,.00070374,81.3014,9.8650,181.5884,178.5252,0,U,65577,999,3882,.3301173E-5,.16E-6,0
PRAETORIAN SDA_615,2025-203P,2026-06-18T14:27:12.120768,13.84436471,.00090382,81.3021,9.2476,181.2942,178.8193,0,U,65578,999,3890,.14739952E-3,.177E-5,0
PRAETORIAN SDA_616,2025-203Q,2026-06-18T08:35:02.815872,13.83267388,.00052765,81.3063,9.9933,188.0517,172.0556,0,U,65579,999,3884,.13540994E-3,.16E-5,0
PRAETORIAN SDA_617,2025-203R,2026-06-18T12:34:37.992576,13.83150137,.00073397,81.3036,9.6715,180.3244,179.7908,0,U,65580,999,3887,.16858784E-4,.3E-6,0
PRAETORIAN SDA_618,2025-203S,2026-06-18T06:41:45.679488,13.84670108,.00096741,81.3018,9.4764,184.9968,175.1094,0,U,65581,999,3886,.13735059E-3,.166E-5,0
PRAETORIAN SDA_619,2025-203T,2026-06-18T14:30:58.600224,13.83805897,.00082164,81.3041,9.4734,181.5911,178.5221,0,U,65582,999,3952,.13148185E-3,.157E-5,0
PRAETORIAN SDA_620,2025-203U,2026-06-18T11:43:17.671008,13.83618401,.00077133,81.3028,9.6028,177.3783,182.7415,0,U,65583,999,3887,.90868343E-4,.112E-5,0
PRAETORIAN SDA_621,2025-203V,2026-06-18T14:33:32.145120,13.83801426,.00074306,81.3020,9.4106,174.7447,185.3789,0,U,65584,999,3889,.34646995E-4,.5E-6,0
PRAETORIAN SDA_601,2025-203W,2026-06-18T12:08:00.860064,13.83167657,.00053237,81.3036,9.8017,191.5599,168.5435,0,U,65585,999,3886,.36624587E-3,.413E-5,0
